[
    {
        "Altitude(m)": 703718.8588979063,
        "Argument of Periapsis(deg)": 0.010251109067964361,
        "Eccentricity": 0.0,
        "Inclination(deg)": 45.0,
        "Latitude(deg)": 26.328290151745463,
        "Longitude(deg)": 124.82241591297186,
        "Mean Anomaly(deg)": 141.28899498273276,
        "RAAN(deg)": 74.99032325268763,
        "Satellite Name": "Constellation 1 338",
        "Satellite Number": 338,
        "Semi-Major Axis(m)": 7083131.272910544,
        "Time(s)": 171
    },
    {
        "Altitude(m)": 703713.7631812803,
        "Argument of Periapsis(deg)": 0.010311057074209765,
        "Eccentricity": 0.0,
        "Inclination(deg)": 45.0,
        "Latitude(deg)": 26.290718483464953,
        "Longitude(deg)": 124.87159150034464,
        "Mean Anomaly(deg)": 141.34969612298264,
        "RAAN(deg)": 74.99026666352205,
        "Satellite Name": "Constellation 1 338",
        "Satellite Number": 338,
        "Semi-Major Axis(m)": 7083131.272910544,
        "Time(s)": 172
    },
    {
        "Altitude(m)": 703708.6757171168,
        "Argument of Periapsis(deg)": 0.010371005080455171,
        "Eccentricity": 0.0,
        "Inclination(deg)": 45.0,
        "Latitude(deg)": 26.253126858399224,
        "Longitude(deg)": 124.92073276523469,
        "Mean Anomaly(deg)": 141.41039726323257,
        "RAAN(deg)": 74.99021007435648,
        "Satellite Name": "Constellation 1 338",
        "Satellite Number": 338,
        "Semi-Major Axis(m)": 7083131.272910544,
        "Time(s)": 173
    },
    {
        "Altitude(m)": 703703.596543251,
        "Argument of Periapsis(deg)": 0.010430953086700577,
        "Eccentricity": 0.0,
        "Inclination(deg)": 45.0,
        "Latitude(deg)": 26.21551532179973,
        "Longitude(deg)": 124.96983976826745,
        "Mean Anomaly(deg)": 141.47109840348244,
        "RAAN(deg)": 74.9901534851909,
        "Satellite Name": "Constellation 1 338",
        "Satellite Number": 338,
        "Semi-Major Axis(m)": 7083131.272910544,
        "Time(s)": 174
    },
    {
        "Altitude(m)": 703698.5256974954,
        "Argument of Periapsis(deg)": 0.010490901092945983,
        "Eccentricity": 0.0,
        "Inclination(deg)": 45.0,
        "Latitude(deg)": 26.177883918851737,
        "Longitude(deg)": 125.01891257007365,
        "Mean Anomaly(deg)": 141.53179954373235,
        "RAAN(deg)": 74.99009689602534,
        "Satellite Name": "Constellation 1 338",
        "Satellite Number": 338,
        "Semi-Major Axis(m)": 7083131.272910544,
        "Time(s)": 175
    },
    {
        "Altitude(m)": 703693.4632176326,
        "Argument of Periapsis(deg)": 0.010550849099191389,
        "Eccentricity": 0.0,
        "Inclination(deg)": 45.0,
        "Latitude(deg)": 26.14023269467461,
        "Longitude(deg)": 125.06795123128873,
        "Mean Anomaly(deg)": 141.59250068398222,
        "RAAN(deg)": 74.99004030685978,
        "Satellite Name": "Constellation 1 338",
        "Satellite Number": 338,
        "Semi-Major Axis(m)": 7083131.272910544,
        "Time(s)": 176
    },
    {
        "Altitude(m)": 703688.4091414195,
        "Argument of Periapsis(deg)": 0.010610797105436795,
        "Eccentricity": 0.0,
        "Inclination(deg)": 45.0,
        "Latitude(deg)": 26.102561694321682,
        "Longitude(deg)": 125.11695581255296,
        "Mean Anomaly(deg)": 141.65320182423216,
        "RAAN(deg)": 74.9899837176942,
        "Satellite Name": "Constellation 1 338",
        "Satellite Number": 338,
        "Semi-Major Axis(m)": 7083131.272910544,
        "Time(s)": 177
    },
    {
        "Altitude(m)": 703683.3635065955,
        "Argument of Periapsis(deg)": 0.0106707451116822,
        "Eccentricity": 0.0,
        "Inclination(deg)": 45.0,
        "Latitude(deg)": 26.064870962780702,
        "Longitude(deg)": 125.16592620641345,
        "Mean Anomaly(deg)": 141.71390296448203,
        "RAAN(deg)": 74.98992712852863,
        "Satellite Name": "Constellation 1 338",
        "Satellite Number": 338,
        "Semi-Major Axis(m)": 7083131.272910544,
        "Time(s)": 178
    },
    {
        "Altitude(m)": 703678.3263508693,
        "Argument of Periapsis(deg)": 0.010730693117927606,
        "Eccentricity": 0.0,
        "Inclination(deg)": 45.0,
        "Latitude(deg)": 26.027160544973174,
        "Longitude(deg)": 125.21486280971283,
        "Mean Anomaly(deg)": 141.77460410473194,
        "RAAN(deg)": 74.98987053936307,
        "Satellite Name": "Constellation 1 338",
        "Satellite Number": 338,
        "Semi-Major Axis(m)": 7083131.272910544,
        "Time(s)": 179
    },
    {
        "Altitude(m)": 703673.2977119271,
        "Argument of Periapsis(deg)": 0.01079064112417301,
        "Eccentricity": 0.0,
        "Inclination(deg)": 45.0,
        "Latitude(deg)": 25.989430485755378,
        "Longitude(deg)": 125.26376551500549,
        "Mean Anomaly(deg)": 141.83530524498184,
        "RAAN(deg)": 74.98981395019749,
        "Satellite Name": "Constellation 1 338",
        "Satellite Number": 338,
        "Semi-Major Axis(m)": 7083131.272910544,
        "Time(s)": 180
    },
    {
        "Altitude(m)": 703668.2776274242,
        "Argument of Periapsis(deg)": 0.010850589130418416,
        "Eccentricity": 0.0,
        "Inclination(deg)": 45.0,
        "Latitude(deg)": 25.951680829918033,
        "Longitude(deg)": 125.3126343829462,
        "Mean Anomaly(deg)": 141.89600638523174,
        "RAAN(deg)": 74.98975736103192,
        "Satellite Name": "Constellation 1 338",
        "Satellite Number": 338,
        "Semi-Major Axis(m)": 7083131.272910544,
        "Time(s)": 181
    },
    {
        "Altitude(m)": 703663.2661349985,
        "Argument of Periapsis(deg)": 0.01091053713666382,
        "Eccentricity": 0.0,
        "Inclination(deg)": 45.0,
        "Latitude(deg)": 25.913911622186355,
        "Longitude(deg)": 125.3614694741924,
        "Mean Anomaly(deg)": 141.95670752548162,
        "RAAN(deg)": 74.98970077186635,
        "Satellite Name": "Constellation 1 338",
        "Satellite Number": 338,
        "Semi-Major Axis(m)": 7083131.272910544,
        "Time(s)": 182
    },
    {
        "Altitude(m)": 703658.2632722557,
        "Argument of Periapsis(deg)": 0.010970485142909228,
        "Eccentricity": 0.0,
        "Inclination(deg)": 45.0,
        "Latitude(deg)": 25.876122907220065,
        "Longitude(deg)": 125.41027084940427,
        "Mean Anomaly(deg)": 142.01740866573152,
        "RAAN(deg)": 74.98964418270079,
        "Satellite Name": "Constellation 1 338",
        "Satellite Number": 338,
        "Semi-Major Axis(m)": 7083131.272910544,
        "Time(s)": 183
    },
    {
        "Altitude(m)": 703653.2690767733,
        "Argument of Periapsis(deg)": 0.011030433149154634,
        "Eccentricity": 0.0,
        "Inclination(deg)": 45.0,
        "Latitude(deg)": 25.83831472961373,
        "Longitude(deg)": 125.45903856924362,
        "Mean Anomaly(deg)": 142.07810980598146,
        "RAAN(deg)": 74.98958759353522,
        "Satellite Name": "Constellation 1 338",
        "Satellite Number": 338,
        "Semi-Major Axis(m)": 7083131.272910544,
        "Time(s)": 184
    },
    {
        "Altitude(m)": 703648.2835861106,
        "Argument of Periapsis(deg)": 0.01109038115540004,
        "Eccentricity": 0.0,
        "Inclination(deg)": 45.0,
        "Latitude(deg)": 25.800487133896983,
        "Longitude(deg)": 125.50777252627687,
        "Mean Anomaly(deg)": 142.13881094623136,
        "RAAN(deg)": 74.98953100436965,
        "Satellite Name": "Constellation 1 338",
        "Satellite Number": 338,
        "Semi-Major Axis(m)": 7083131.272910544,
        "Time(s)": 185
    },
    {
        "Altitude(m)": 703643.3068377977,
        "Argument of Periapsis(deg)": 0.011150329161645444,
        "Eccentricity": 0.0,
        "Inclination(deg)": 45.0,
        "Latitude(deg)": 25.762640164533753,
        "Longitude(deg)": 125.55647311736358,
        "Mean Anomaly(deg)": 142.19951208648123,
        "RAAN(deg)": 74.98947441520407,
        "Satellite Name": "Constellation 1 338",
        "Satellite Number": 338,
        "Semi-Major Axis(m)": 7083131.272910544,
        "Time(s)": 186
    },
    {
        "Altitude(m)": 703638.3388693291,
        "Argument of Periapsis(deg)": 0.01121027716789085,
        "Eccentricity": 0.0,
        "Inclination(deg)": 45.0,
        "Latitude(deg)": 25.724773865923567,
        "Longitude(deg)": 125.60514023507261,
        "Mean Anomaly(deg)": 142.2602132267311,
        "RAAN(deg)": 74.9894178260385,
        "Satellite Name": "Constellation 1 338",
        "Satellite Number": 338,
        "Semi-Major Axis(m)": 7083131.272910544,
        "Time(s)": 187
    },
    {
        "Altitude(m)": 703633.379718188,
        "Argument of Periapsis(deg)": 0.011270225174136258,
        "Eccentricity": 0.0,
        "Inclination(deg)": 45.0,
        "Latitude(deg)": 25.686888282400908,
        "Longitude(deg)": 125.65377394007064,
        "Mean Anomaly(deg)": 142.32091436698101,
        "RAAN(deg)": 74.98936123687294,
        "Satellite Name": "Constellation 1 338",
        "Satellite Number": 338,
        "Semi-Major Axis(m)": 7083131.272910544,
        "Time(s)": 188
    },
    {
        "Altitude(m)": 703628.4294218137,
        "Argument of Periapsis(deg)": 0.011330173180381662,
        "Eccentricity": 0.0,
        "Inclination(deg)": 45.0,
        "Latitude(deg)": 25.64898345823545,
        "Longitude(deg)": 125.70237429302473,
        "Mean Anomaly(deg)": 142.38161550723095,
        "RAAN(deg)": 74.98930464770736,
        "Satellite Name": "Constellation 1 338",
        "Satellite Number": 338,
        "Semi-Major Axis(m)": 7083131.272910544,
        "Time(s)": 189
    }
]